CCSDS_OMM_VERS = 2.0
CREATION_DATE  = 
ORIGINATOR     = 

OBJECT_NAME    = SL-16 R/B
OBJECT_ID      = 1998-045B
CENTER_NAME    = EARTH
REF_FRAME      = TEME
TIME_SYSTEM    = UTC
MEAN_ELEMENT_THEORY = SGP/SGP4

EPOCH          = 2026-03-19T16:10:07.050144
MEAN_MOTION    = 14.16195132
ECCENTRICITY   = .0007425
INCLINATION    = 71.0119
RA_OF_ASC_NODE = 160.5796
ARG_OF_PERICENTER = 352.2110
MEAN_ANOMALY   = 7.8897

EPHEMERIS_TYPE = 0
CLASSIFICATION_TYPE = U
NORAD_CAT_ID   = 25407
ELEMENT_SET_NO = 999
REV_AT_EPOCH   = 42851
BSTAR          = .68708E-4
MEAN_MOTION_DOT = .88E-6
MEAN_MOTION_DDOT = 0

CCSDS_OMM_VERS = 2.0
CREATION_DATE  = 
ORIGINATOR     = 

OBJECT_NAME    = ISS (ZARYA)
OBJECT_ID      = 1998-067A
CENTER_NAME    = EARTH
REF_FRAME      = TEME
TIME_SYSTEM    = UTC
MEAN_ELEMENT_THEORY = SGP/SGP4

EPOCH          = 2026-03-19T20:08:56.007168
MEAN_MOTION    = 15.48385427
ECCENTRICITY   = .0006242
INCLINATION    = 51.6344
RA_OF_ASC_NODE = 22.1830
ARG_OF_PERICENTER = 209.8635
MEAN_ANOMALY   = 150.1998

EPHEMERIS_TYPE = 0
CLASSIFICATION_TYPE = U
NORAD_CAT_ID   = 25544
ELEMENT_SET_NO = 999
REV_AT_EPOCH   = 55790
BSTAR          = .19745E-3
MEAN_MOTION_DOT = .10217E-3
MEAN_MOTION_DDOT = 0

CCSDS_OMM_VERS = 2.0
CREATION_DATE  = 
ORIGINATOR     = 

OBJECT_NAME    = CZ-4B R/B
OBJECT_ID      = 1999-025C
CENTER_NAME    = EARTH
REF_FRAME      = TEME
TIME_SYSTEM    = UTC
MEAN_ELEMENT_THEORY = SGP/SGP4

EPOCH          = 2026-03-19T18:19:41.299680
MEAN_MOTION    = 14.18267216
ECCENTRICITY   = .0036271
INCLINATION    = 98.6605
RA_OF_ASC_NODE = 122.8057
ARG_OF_PERICENTER = 317.1982
MEAN_ANOMALY   = 154.0022

EPHEMERIS_TYPE = 0
CLASSIFICATION_TYPE = U
NORAD_CAT_ID   = 25732
ELEMENT_SET_NO = 999
REV_AT_EPOCH   = 38959
BSTAR          = .36805E-4
MEAN_MOTION_DOT = .33E-6
MEAN_MOTION_DDOT = 0

CCSDS_OMM_VERS = 2.0
CREATION_DATE  = 
ORIGINATOR     = 

OBJECT_NAME    = OKEAN-O
OBJECT_ID      = 1999-039A
CENTER_NAME    = EARTH
REF_FRAME      = TEME
TIME_SYSTEM    = UTC
MEAN_ELEMENT_THEORY = SGP/SGP4

EPOCH          = 2026-03-19T17:21:35.707680
MEAN_MOTION    = 14.80350875
ECCENTRICITY   = .0000993
INCLINATION    = 97.9420
RA_OF_ASC_NODE = 138.5119
ARG_OF_PERICENTER = 76.2615
MEAN_ANOMALY   = 283.8707

EPHEMERIS_TYPE = 0
CLASSIFICATION_TYPE = U
NORAD_CAT_ID   = 25860
ELEMENT_SET_NO = 999
REV_AT_EPOCH   = 43587
BSTAR          = .77732E-4
MEAN_MOTION_DOT = .541E-5
MEAN_MOTION_DDOT = 0

CCSDS_OMM_VERS = 2.0
CREATION_DATE  = 
ORIGINATOR     = 

OBJECT_NAME    = SL-16 R/B
OBJECT_ID      = 1999-039B
CENTER_NAME    = EARTH
REF_FRAME      = TEME
TIME_SYSTEM    = UTC
MEAN_ELEMENT_THEORY = SGP/SGP4

EPOCH          = 2026-03-19T18:16:15.043008
MEAN_MOTION    = 14.81744557
ECCENTRICITY   = .0013906
INCLINATION    = 97.9944
RA_OF_ASC_NODE = 137.8419
ARG_OF_PERICENTER = 220.7349
MEAN_ANOMALY   = 139.2824

EPHEMERIS_TYPE = 0
CLASSIFICATION_TYPE = U
NORAD_CAT_ID   = 25861
ELEMENT_SET_NO = 999
REV_AT_EPOCH   = 43835
BSTAR          = .62761E-4
MEAN_MOTION_DOT = .441E-5
MEAN_MOTION_DDOT = 0

CCSDS_OMM_VERS = 2.0
CREATION_DATE  = 
ORIGINATOR     = 

OBJECT_NAME    = DELTA 2 R/B
OBJECT_ID      = 1999-041E
CENTER_NAME    = EARTH
REF_FRAME      = TEME
TIME_SYSTEM    = UTC
MEAN_ELEMENT_THEORY = SGP/SGP4

EPOCH          = 2026-03-19T16:57:28.263168
MEAN_MOTION    = 14.11863310
ECCENTRICITY   = .0502593
INCLINATION    = 51.7607
RA_OF_ASC_NODE = 261.2673
ARG_OF_PERICENTER = 17.9781
MEAN_ANOMALY   = 343.8236

EPHEMERIS_TYPE = 0
CLASSIFICATION_TYPE = U
NORAD_CAT_ID   = 25876
ELEMENT_SET_NO = 999
REV_AT_EPOCH   = 36444
BSTAR          = .10293E-3
MEAN_MOTION_DOT = .393E-5
MEAN_MOTION_DDOT = 0

CCSDS_OMM_VERS = 2.0
CREATION_DATE  = 
ORIGINATOR     = 

OBJECT_NAME    = HELIOS 1B
OBJECT_ID      = 1999-064A
CENTER_NAME    = EARTH
REF_FRAME      = TEME
TIME_SYSTEM    = UTC
MEAN_ELEMENT_THEORY = SGP/SGP4

EPOCH          = 2026-03-19T17:38:48.079680
MEAN_MOTION    = 14.87736134
ECCENTRICITY   = .0002215
INCLINATION    = 98.1685
RA_OF_ASC_NODE = 341.2734
ARG_OF_PERICENTER = 60.6796
MEAN_ANOMALY   = 299.4640

EPHEMERIS_TYPE = 0
CLASSIFICATION_TYPE = U
NORAD_CAT_ID   = 25977
ELEMENT_SET_NO = 999
REV_AT_EPOCH   = 68675
BSTAR          = .15891E-3
MEAN_MOTION_DOT = .139E-4
MEAN_MOTION_DDOT = 0

CCSDS_OMM_VERS = 2.0
CREATION_DATE  = 
ORIGINATOR     = 

OBJECT_NAME    = TERRA
OBJECT_ID      = 1999-068A
CENTER_NAME    = EARTH
REF_FRAME      = TEME
TIME_SYSTEM    = UTC
MEAN_ELEMENT_THEORY = SGP/SGP4

EPOCH          = 2026-03-19T20:32:48.611616
MEAN_MOTION    = 14.61024952
ECCENTRICITY   = .0003265
INCLINATION    = 97.9572
RA_OF_ASC_NODE = 131.9015
ARG_OF_PERICENTER = 129.7135
MEAN_ANOMALY   = 317.2419

EPHEMERIS_TYPE = 0
CLASSIFICATION_TYPE = U
NORAD_CAT_ID   = 25994
ELEMENT_SET_NO = 999
REV_AT_EPOCH   = 39656
BSTAR          = .8147E-4
MEAN_MOTION_DOT = .355E-5
MEAN_MOTION_DDOT = 0

CCSDS_OMM_VERS = 2.0
CREATION_DATE  = 
ORIGINATOR     = 

OBJECT_NAME    = SL-16 R/B
OBJECT_ID      = 2000-006B
CENTER_NAME    = EARTH
REF_FRAME      = TEME
TIME_SYSTEM    = UTC
MEAN_ELEMENT_THEORY = SGP/SGP4

EPOCH          = 2026-03-19T06:25:38.032320
MEAN_MOTION    = 14.15823696
ECCENTRICITY   = .0016253
INCLINATION    = 71.0004
RA_OF_ASC_NODE = 77.6957
ARG_OF_PERICENTER = 175.2757
MEAN_ANOMALY   = 184.8522

EPHEMERIS_TYPE = 0
CLASSIFICATION_TYPE = U
NORAD_CAT_ID   = 26070
ELEMENT_SET_NO = 999
REV_AT_EPOCH   = 34991
BSTAR          = -.39104947E-4
MEAN_MOTION_DOT = -.125E-5
MEAN_MOTION_DDOT = 0

CCSDS_OMM_VERS = 2.0
CREATION_DATE  = 
ORIGINATOR     = 

OBJECT_NAME    = TITAN 4B R/B
OBJECT_ID      = 2000-047B
CENTER_NAME    = EARTH
REF_FRAME      = TEME
TIME_SYSTEM    = UTC
MEAN_ELEMENT_THEORY = SGP/SGP4

EPOCH          = 2026-03-19T20:00:28.826208
MEAN_MOTION    = 15.09657426
ECCENTRICITY   = .0039121
INCLINATION    = 67.9913
RA_OF_ASC_NODE = 11.9841
ARG_OF_PERICENTER = 23.3772
MEAN_ANOMALY   = 336.9144

EPHEMERIS_TYPE = 0
CLASSIFICATION_TYPE = U
NORAD_CAT_ID   = 26474
ELEMENT_SET_NO = 999
REV_AT_EPOCH   = 39444
BSTAR          = .2288E-3
MEAN_MOTION_DOT = .3621E-4
MEAN_MOTION_DDOT = 0

CCSDS_OMM_VERS = 2.0
CREATION_DATE  = 
ORIGINATOR     = 

OBJECT_NAME    = ENVISAT
OBJECT_ID      = 2002-009A
CENTER_NAME    = EARTH
REF_FRAME      = TEME
TIME_SYSTEM    = UTC
MEAN_ELEMENT_THEORY = SGP/SGP4

EPOCH          = 2026-03-19T19:47:45.204864
MEAN_MOTION    = 14.39040384
ECCENTRICITY   = .0001297
INCLINATION    = 98.3746
RA_OF_ASC_NODE = 32.1818
ARG_OF_PERICENTER = 82.2096
MEAN_ANOMALY   = 296.1609

EPHEMERIS_TYPE = 0
CLASSIFICATION_TYPE = U
NORAD_CAT_ID   = 27386
ELEMENT_SET_NO = 999
REV_AT_EPOCH   = 26063
BSTAR          = .43205E-4
MEAN_MOTION_DOT = .91E-6
MEAN_MOTION_DDOT = 0

CCSDS_OMM_VERS = 2.0
CREATION_DATE  = 
ORIGINATOR     = 

OBJECT_NAME    = IDEFIX & ARIANE 42P R/B
OBJECT_ID      = 2002-021B
CENTER_NAME    = EARTH
REF_FRAME      = TEME
TIME_SYSTEM    = UTC
MEAN_ELEMENT_THEORY = SGP/SGP4

EPOCH          = 2026-03-19T20:15:20.950272
MEAN_MOTION    = 14.31032832
ECCENTRICITY   = .0012161
INCLINATION    = 98.5881
RA_OF_ASC_NODE = 17.3295
ARG_OF_PERICENTER = 152.5787
MEAN_ANOMALY   = 207.6040

EPHEMERIS_TYPE = 0
CLASSIFICATION_TYPE = U
NORAD_CAT_ID   = 27422
ELEMENT_SET_NO = 999
REV_AT_EPOCH   = 24547
BSTAR          = .10587E-3
MEAN_MOTION_DOT = .235E-5
MEAN_MOTION_DDOT = 0

